{
    "links": {
        "self": "http://www.neowsapp.com/rest/v1/neo/3837993?api_key=iIulBulltgU6a56xZRHN4H3l9WmuAYTsLGpBGhQ2"
    },
    "id": "3837993",
    "neo_reference_id": "3837993",
    "name": "(2019 BR2)",
    "designation": "2019 BR2",
    "nasa_jpl_url": "http://ssd.jpl.nasa.gov/sbdb.cgi?sstr=3837993",
    "absolute_magnitude_h": 28.3,
    "estimated_diameter": {
        "kilometers": {
            "estimated_diameter_min": 0.0058150704,
            "estimated_diameter_max": 0.0130028927
        },
        "meters": {
            "estimated_diameter_min": 5.8150703965,
            "estimated_diameter_max": 13.0028927004
        },
        "miles": {
            "estimated_diameter_min": 0.0036133161,
            "estimated_diameter_max": 0.0080796204
        },
        "feet": {
            "estimated_diameter_min": 19.0783155595,
            "estimated_diameter_max": 42.6604104873
        }
    },
    "is_potentially_hazardous_asteroid": false,
    "close_approach_data": [
        {
            "close_approach_date": "1989-01-12",
            "close_approach_date_full": "1989-Jan-12 21:45",
            "epoch_date_close_approach": 600644700000,
            "relative_velocity": {
                "kilometers_per_second": "20.1722972024",
                "kilometers_per_hour": "72620.2699284784",
                "miles_per_hour": "45123.4116119481"
            },
            "miss_distance": {
                "astronomical": "0.2451615197",
                "lunar": "95.3678311633",
                "kilometers": "36675641.153083039",
                "miles": "22789186.6638983782"
            },
            "orbiting_body": "Earth"
        },
        {
            "close_approach_date": "2017-06-19",
            "close_approach_date_full": "2017-Jun-19 08:18",
            "epoch_date_close_approach": 1497860280000,
            "relative_velocity": {
                "kilometers_per_second": "13.0754799697",
                "kilometers_per_hour": "47071.7278908779",
                "miles_per_hour": "29248.5411441958"
            },
            "miss_distance": {
                "astronomical": "0.0680263294",
                "lunar": "26.4622421366",
                "kilometers": "10176593.982158378",
                "miles": "6323442.2785984964"
            },
            "orbiting_body": "Earth"
        },
        {
            "close_approach_date": "2019-01-28",
            "close_approach_date_full": "2019-Jan-28 05:27",
            "epoch_date_close_approach": 1548653220000,
            "relative_velocity": {
                "kilometers_per_second": "13.0943835748",
                "kilometers_per_hour": "47139.7808693102",
                "miles_per_hour": "29290.8266184889"
            },
            "miss_distance": {
                "astronomical": "0.004388788",
                "lunar": "1.707238532",
                "kilometers": "656553.33668156",
                "miles": "407963.325903128"
            },
            "orbiting_body": "Earth"
        },
        {
            "close_approach_date": "2019-01-28",
            "close_approach_date_full": "2019-Jan-28 07:07",
            "epoch_date_close_approach": 1548659220000,
            "relative_velocity": {
                "kilometers_per_second": "12.1274451437",
                "kilometers_per_hour": "43658.8025173621",
                "miles_per_hour": "27127.8820419687"
            },
            "miss_distance": {
                "astronomical": "0.002825443",
                "lunar": "1.099097327",
                "kilometers": "422680.25460641",
                "miles": "262641.331372058"
            },
            "orbiting_body": "Moon"
        },
        {
            "close_approach_date": "2076-11-15",
            "close_approach_date_full": "2076-Nov-15 20:42",
            "epoch_date_close_approach": 3372698520000,
            "relative_velocity": {
                "kilometers_per_second": "13.0873164781",
                "kilometers_per_hour": "47114.3393211848",
                "miles_per_hour": "29275.0182298773"
            },
            "miss_distance": {
                "astronomical": "0.0729399799",
                "lunar": "28.3736521811",
                "kilometers": "10911665.630882813",
                "miles": "6780194.6212282994"
            },
            "orbiting_body": "Mars"
        }
    ],
    "orbital_data": {
        "orbit_id": "2",
        "orbit_determination_date": "2019-01-28 07:45:51",
        "first_observation_date": "2019-01-25",
        "last_observation_date": "2019-01-28",
        "data_arc_in_days": 3,
        "observations_used": 22,
        "orbit_uncertainty": "7",
        "minimum_orbit_intersection": ".00221397",
        "jupiter_tisserand_invariant": "4.392",
        "epoch_osculation": "2459000.5",
        "eccentricity": ".4755033502571938",
        "semi_major_axis": "1.50827645672722",
        "inclination": "5.797365469271929",
        "ascending_node_longitude": "306.7666654647833",
        "orbital_period": "676.581089282443",
        "perihelion_distance": ".7910859484393775",
        "perihelion_argument": "248.4108636630872",
        "aphelion_distance": "2.225466965015062",
        "perihelion_time": "2459234.459049687226",
        "mean_anomaly": "235.5134318390018",
        "mean_motion": ".5320869969655858",
        "equinox": "J2000",
        "orbit_class": {
            "orbit_class_type": "APO",
            "orbit_class_description": "Near-Earth asteroid orbits which cross the Earth’s orbit similar to that of 1862 Apollo",
            "orbit_class_range": "a (semi-major axis) > 1.0 AU; q (perihelion) < 1.017 AU"
        }
    },
    "is_sentry_object": false
}